STARLINK-36983          
1 68323U 26059C   26090.66668981 -.00004857  00000+0 -21081-4 0  9992
2 68323  53.1605 252.7431 0000868  69.1247 143.7659 15.80877302  2579
STARLINK-37164          
1 68324U 26059D   26090.66668981 -.00016237  00000+0 -78845-4 0  9998
2 68324  53.1594 252.7255 0001078  31.2670 190.1792 15.80881704  2570
STARLINK-36309          
1 68325U 26059E   26090.66668981  .00036060  00000+0  18561-3 0  9991
2 68325  53.1595 252.7165 0000548  25.9035 199.8113 15.80856855  2570
STARLINK-37206          
1 68326U 26059F   26090.66668981 -.00006886  00000+0 -31363-4 0  9993
2 68326  53.1597 252.7078 0001824  25.1701 204.8176 15.80874459  2572
STARLINK-37199          
1 68327U 26059G   26090.66668981  .00112037  00000+0  56553-3 0  9995
2 68327  53.1596 252.6988 0001052  96.8453 137.4335 15.80807748  2578
STARLINK-36245          
1 68328U 26059H   26090.66668981  .00035370  00000+0  18213-3 0  9991
2 68328  53.1595 252.6813 0001467  85.1064 157.7005 15.80858400  2574
STARLINK-37204          
1 68329U 26059J   26090.66668981 -.00006942  00000+0 -31674-4 0  9994
2 68329  53.1595 252.6905 0000972  78.9071 159.6373 15.80863839  2576
STARLINK-37001          
1 68330U 26059K   26090.66668981  .00033367  00000+0  17212-3 0  9996
2 68330  53.1594 252.6727 0001492  95.5554 151.5333 15.80850233  2579
STARLINK-36932          
1 68331U 26059L   26090.66668981  .00044713  00000+0  22923-3 0  9999
2 68331  53.1595 252.6638 0000649  34.9968 216.3698 15.80841553  2570
STARLINK-37205          
1 68332U 26059M   26090.66668981  .00007990  00000+0  43990-4 0  9994
2 68332  53.1594 252.6552 0001094  83.5801 172.0491 15.80869969  2576
STARLINK-37180          
1 68333U 26059N   26090.66668981  .00219272  00000+0  10924-2 0  9992
2 68333  53.1596 252.6461 0000797  27.5459 232.3653 15.80754721  2573
STARLINK-37191          
1 68334U 26059P   26090.66668981 -.00016431  00000+0 -79843-4 0  9994
2 68334  53.1594 252.6374 0001122  66.1027 198.0644 15.80878542  2574
STARLINK-37217          
1 68335U 26059Q   26090.66668981 -.00164722  00000+0 -84319-3 0  9995
2 68335  53.1596 252.6285 0000853  88.9874 179.4052 15.80971022  2573
STARLINK-37143          
1 68336U 26059R   26090.66668981 -.00533465  00000+0 -28225-2 0  9993
2 68336  53.1595 252.6202 0000786  73.5208 199.0079 15.81230453  2572
STARLINK-36237          
1 68337U 26059S   26090.66668981 -.00866364  00000+0 -47087-2 0  9998
2 68337  53.1593 252.6114 0001000  67.9776 208.6764 15.81486973  2578
STARLINK-36254          
1 68338U 26059T   26090.66668981 -.01573633  00000+0 -85547-2 0  9997
2 68338  53.1593 252.5947 0001069  85.6099 199.0703 15.82182018  2572
STARLINK-37200          
1 68339U 26059U   26090.66668981 -.01269689  00000+0 -69663-2 0  9992
2 68339  53.1592 252.6033 0001256  99.8036 180.8964 15.81831531  2572
